NORAD_CAT_ID,OBJECT_NAME,OBJECT_TYPE,EPOCH,MEAN_MOTION,ECCENTRICITY,INCLINATION,RA_OF_ASC_NODE,ARG_OF_PERICENTER,MEAN_ANOMALY,BSTAR,MEAN_MOTION_DOT,MEAN_MOTION_DDOT,TLE_LINE0,TLE_LINE1,TLE_LINE2,SEMIMAJOR_AXIS,PERIOD,APOGEE,PERIGEE,DECAYED
52848.0,STARLINK-4202,PAYLOAD,2022-09-23 14:00:01,15.088196,0.0002165,53.2198,304.4287,33.723,237.1242,0.0028498,0.00045334,0.0,0 STARLINK-4202,1 52848U 22062U   22266.58334491  .00045334  00000-0  28498-2 0  9996,2 52848  53.2198 304.4287 0002165  33.7230 237.1242 15.08819600 15596,6917.943,95.439,541.305,538.31,0.0
52848.0,STARLINK-4202,PAYLOAD,2022-09-23 22:00:00,15.08826587,0.0001964,53.2199,302.9307,37.5452,244.8993,0.0022623,0.00035887,0.0,0 STARLINK-4202,1 52848U 22062U   22266.91667824  .00035887  00000-0  22623-2 0  9998,2 52848  53.2199 302.9307 0001964  37.5452 244.8993 15.08826587  1301,6917.920999999999,95.438,541.145,538.428,0.0
52848.0,STARLINK-4202,PAYLOAD,2022-09-24 06:00:00,15.08869948,0.0002011,53.2198,301.4352,38.0715,255.9678,-0.0013754,-0.00022129,0.0,0 STARLINK-4202,1 52848U 22062U   22267.25001157 -.00022129  00000-0 -13754-2 0  9999,2 52848  53.2198 301.4352 0002011  38.0715 255.9678 15.08869948 15694,6917.7890000000025,95.436,541.045,538.263,0.0
52848.0,STARLINK-4202,PAYLOAD,2022-09-24 14:00:01,15.08852377,0.0002126999999999,53.2192,299.9397,33.2616,272.4652,-0.00059429,-9.737e-05,0.0,0 STARLINK-4202,1 52848U 22062U   22267.58335648 -.00009737  00000-0 -59429-3 0  9990,2 52848  53.2192 299.9397 0002127  33.2616 272.4652 15.08852377  1300,6917.843000000003,95.437,541.179,538.236,0.0
52848.0,STARLINK-4202,PAYLOAD,2022-09-24 22:00:00,15.08824494,0.0001913,53.2192,298.4418,37.3571,279.9197,0.0018376999999999,0.00029068,0.0,0 STARLINK-4202,1 52848U 22062U   22267.91667824  .00029068  00000-0  18377-2 0  9994,2 52848  53.2192 298.4418 0001913  37.3571 279.9197 15.08824494  1300,6917.928000000001,95.439,541.116,538.469,0.0
52848.0,STARLINK-4202,PAYLOAD,2022-09-25 14:00:01,15.08819741,0.0002201999999999,53.2185,295.4508,36.4078,304.0485,0.0019552,0.00030949,0.0,0 STARLINK-4202,1 52848U 22062U   22268.58334491  .00030949  00000-0  19552-2 0  9995,2 52848  53.2185 295.4508 0002202  36.4078 304.0485 15.08819741  1302,6917.941999999999,95.439,541.331,538.284,0.0
52848.0,STARLINK-4202,PAYLOAD,2022-09-25 22:00:01,15.08819555,0.0002026999999999,53.2183,293.9517,42.012,310.0866,0.00078553,0.00012229,0.0,0 STARLINK-4202,1 52848U 22062U   22268.91668981  .00012229  00000-0  78553-3 0  9994,2 52848  53.2183 293.9517 0002027  42.0120 310.0866 15.08819555 15947,6917.943,95.439,541.21,538.406,0.0
52848.0,STARLINK-4202,PAYLOAD,2022-09-26 00:00:00,15.08827319,0.0002051,53.218,293.5766,43.6694,41.2591,-0.00032405,-5.44e-05,0.0,0 STARLINK-4202,1 52848U 22062U   22269.00001157 -.00005440  00000-0 -32405-3 0  9996,2 52848  53.2180 293.5766 0002051  43.6694  41.2591 15.08827319  1306,6917.919,95.438,541.203,538.365,0.0
52848.0,STARLINK-4202,PAYLOAD,2022-09-26 12:00:00,15.087907199999998,0.0002355999999999,53.2183,291.3361,41.0251,241.268,0.0029905,0.00047564,0.0,0 STARLINK-4202,1 52848U 22062U   22269.50001157  .00047564  00000-0  29905-2 0  9992,2 52848  53.2183 291.3361 0002356  41.0251 241.2680 15.08790720 16037,6918.031,95.441,541.526,538.266,0.0
52848.0,STARLINK-4202,PAYLOAD,2022-09-26 14:00:01,15.08808576,0.0002331,53.218,290.9616,40.2055,334.9715,0.0012898,0.00020281,0.0,0 STARLINK-4202,1 52848U 22062U   22269.58334491  .00020281  00000-0  12898-2 0  9990,2 52848  53.2180 290.9616 0002331  40.2055 334.9715 15.08808576  1300,6917.976,95.44,541.4540000000002,538.229,0.0
52848.0,STARLINK-4202,PAYLOAD,2022-09-27 00:00:00,15.08807581,0.0002193,53.218,289.0893,46.8343,72.8045,0.0024307,0.00038575,0.0,0 STARLINK-4202,1 52848U 22062U   22270.00001157  .00038575  00000-0  24307-2 0  9992,2 52848  53.2180 289.0893 0002193  46.8343  72.8045 15.08807581  1303,6917.979,95.44,541.362,538.327,0.0
52848.0,STARLINK-4202,PAYLOAD,2022-09-27 06:00:00,15.08839419,0.0002329,53.2181,287.9684,44.8116,353.5006,-0.0015897,-0.0002549999999999,0.0,0 STARLINK-4202,1 52848U 22062U   22270.25001157 -.00025500  00000-0 -15897-2 0  9999,2 52848  53.2181 287.9684 0002329  44.8116 353.5006 15.08839419 16145,6917.882,95.438,541.3580000000002,538.136,0.0
52848.0,STARLINK-4202,PAYLOAD,2022-09-27 14:00:01,15.08833127,0.000242,53.2179,286.4723,41.6771,8.2211,0.0012092,0.00019005,0.0,0 STARLINK-4202,1 52848U 22062U   22270.58334491  .00019005  00000-0  12092-2 0  9990,2 52848  53.2179 286.4723 0002420  41.6771   8.2211 15.08833127  1308,6917.901,95.438,541.441,538.092,0.0
52848.0,STARLINK-4202,PAYLOAD,2022-09-27 22:00:01,15.08820805,0.0002268,53.2181,284.9741,46.7533,14.8107,0.0034843,0.00055574,0.0,0 STARLINK-4202,1 52848U 22062U   22270.91668981  .00055574  00000-0  34843-2 0  9990,2 52848  53.2181 284.9741 0002268  46.7533  14.8107 15.08820805 16241,6917.939,95.439,541.373,538.235,0.0
52848.0,STARLINK-4202,PAYLOAD,2022-09-28 06:00:00,15.08840559,0.0002366,53.2183,283.4790000000001,43.9844,29.1038,-0.0012105,-0.00019503,0.0,0 STARLINK-4202,1 52848U 22062U   22271.25001157 -.00019503  00000-0 -12105-2 0  9995,2 52848  53.2183 283.4790 0002366  43.9844  29.1038 15.08840559 16299,6917.879,95.438,541.38,538.107,0.0
52848.0,STARLINK-4202,PAYLOAD,2022-09-28 14:00:01,15.08837679,0.0002448,53.2183,281.9829,41.2014,43.4714,0.0007762,0.00012086,0.0,0 STARLINK-4202,1 52848U 22062U   22271.58334491  .00012086  00000-0  77620-3 0  9992,2 52848  53.2183 281.9829 0002448  41.2014  43.4714 15.08837679  1301,6917.887,95.438,541.446,538.059,0.0
52848.0,STARLINK-4202,PAYLOAD,2022-09-28 22:00:00,15.0882608,0.0002272,53.2187,280.4848,45.469,50.8026,0.0021824,0.00034603,0.0,0 STARLINK-4202,1 52848U 22062U   22271.91667824  .00034603  00000-0  21824-2 0  9991,2 52848  53.2187 280.4848 0002272  45.4690  50.8026 15.08826080 16398,6917.9230000000025,95.438,541.36,538.216,0.0
52848.0,STARLINK-4202,PAYLOAD,2022-09-29 14:00:01,15.08835388,0.0002455,53.219,277.4936,41.3492,78.1013,0.00012796,1.749e-05,0.0,0 STARLINK-4202,1 52848U 22062U   22272.58334491  .00001749  00000-0  12796-3 0  9990,2 52848  53.2190 277.4936 0002455  41.3492  78.1013 15.08835388  1309,6917.894,95.438,541.4580000000002,538.061,0.0
52848.0,STARLINK-4202,PAYLOAD,2022-09-29 22:00:00,15.08820499,0.0002287,53.2193,275.9957,46.2184,84.8296,0.0029986,0.00047733,0.0,0 STARLINK-4202,1 52848U 22062U   22272.91667824  .00047733  00000-0  29986-2 0  9997,2 52848  53.2193 275.9957 0002287  46.2184  84.8296 15.08820499  1307,6917.94,95.439,541.387,538.2230000000002,0.0
52848.0,STARLINK-4202,PAYLOAD,2022-09-30 14:00:01,15.08878974,0.0002458,53.2194,273.0045,42.8297,111.4156,-0.0029678,-0.00047264,0.0,0 STARLINK-4202,1 52848U 22062U   22273.58334491 -.00047264  00000-0 -29678-2 0  9991,2 52848  53.2194 273.0045 0002458  42.8297 111.4156 15.08878974  1305,6917.761,95.435,541.327,537.9259999999998,0.0
52848.0,STARLINK-4202,PAYLOAD,2022-09-30 16:00:00,15.08883068,0.0002367,53.2196,272.6299,43.8044,203.346,-0.0043683,-0.00069227,0.0,0 STARLINK-4202,1 52848U 22062U   22273.66667824 -.00069227  00000-0 -43683-2 0  9994,2 52848  53.2196 272.6299 0002367  43.8044 203.3460 15.08883068 16667,6917.749,95.435,541.251,537.976,0.0
52848.0,STARLINK-4202,PAYLOAD,2022-09-30 22:00:00,15.088250199999996,0.0002226,53.2197,271.5068,46.7544,119.1196,0.0030264,0.00048188,0.0,0 STARLINK-4202,1 52848U 22062U   22273.91667824  .00048188  00000-0  30264-2 0  9994,2 52848  53.2197 271.5068 0002226  46.7544 119.1196 15.08825020  1300,6917.926,95.439,541.331,538.251,0.0
52848.0,STARLINK-4202,PAYLOAD,2022-10-01 06:00:00,15.0885953,0.0002381999999999,53.2197,270.0121,44.4136,133.0578,-0.0008029,-0.00013051,0.0,0 STARLINK-4202,1 52848U 22062U   22274.25001157 -.00013051  00000-0 -80290-3 0  9991,2 52848  53.2197 270.0121 0002382  44.4136 133.0578 15.08859530 16756,6917.821,95.436,541.3340000000002,538.038,0.0
52848.0,STARLINK-4202,PAYLOAD,2022-10-01 14:00:01,15.08867748,0.0002322,53.2194,268.5156,42.4528,146.6285,-0.0029536,-0.00047026,0.0,0 STARLINK-4202,1 52848U 22062U   22274.58334491 -.00047026  00000-0 -29536-2 0  9991,2 52848  53.2194 268.5156 0002322  42.4528 146.6285 15.08867748  1300,6917.795999999999,95.436,541.2669999999998,538.054,0.0
52848.0,STARLINK-4202,PAYLOAD,2022-10-01 22:00:00,15.08832796,0.0002086999999999,53.2196,267.0181,46.0623,154.6304,-6.4749e-05,-1.318e-05,0.0,0 STARLINK-4202,1 52848U 22062U   22274.91667824 -.00001318  00000-0 -64749-4 0  9998,2 52848  53.2196 267.0181 0002087  46.0623 154.6304 15.08832796  1304,6917.901999999999,95.438,541.211,538.3240000000002,0.0
52848.0,STARLINK-4202,PAYLOAD,2022-10-02 14:00:01,15.08846897,0.0002211999999999,53.219,264.0269,42.4199,181.4335,-0.0012226,-0.00019698,0.0,0 STARLINK-4202,1 52848U 22062U   22275.58334491 -.00019698  00000-0 -12226-2 0  9994,2 52848  53.2190 264.0269 0002212  42.4199 181.4335 15.08846897  1309,6917.859,95.437,541.255,538.194,0.0
52848.0,STARLINK-4202,PAYLOAD,2022-10-02 22:00:00,15.08839643,0.0002037,53.219,262.5296,47.7975,187.6546,0.0015064,0.00023768,0.0,0 STARLINK-4202,1 52848U 22062U   22275.91667824  .00023768  00000-0  15064-2 0  9994,2 52848  53.2190 262.5296 0002037  47.7975 187.6546 15.08839643  1300,6917.880999999999,95.438,541.156,538.337,0.0
52848.0,STARLINK-4202,PAYLOAD,2022-10-03 06:00:00,15.08840096,0.0002186999999999,53.2188,261.0351,43.4875,203.5758,-0.00044426,-7.352e-05,0.0,0 STARLINK-4202,1 52848U 22062U   22276.25001157 -.00007352  00000-0 -44426-3 0  9991,2 52848  53.2188 261.0351 0002187  43.4875 203.5758 15.08840096 17057,6917.88,95.438,541.258,538.232,0.0
52848.0,STARLINK-4202,PAYLOAD,2022-10-03 14:00:01,15.08861657,0.0002121999999999,53.2184,259.5383,42.8894,215.7632,-0.0009478999999999,-0.00015352,0.0,0 STARLINK-4202,1 52848U 22062U   22276.58334491 -.00015352  00000-0 -94790-3 0  9995,2 52848  53.2184 259.5383 0002122  42.8894 215.7632 15.08861657  1306,6917.814,95.436,541.1469999999998,538.211,0.0
